NORAD_CAT_ID,OBJECT_NAME,OBJECT_TYPE,EPOCH,MEAN_MOTION,ECCENTRICITY,INCLINATION,RA_OF_ASC_NODE,ARG_OF_PERICENTER,MEAN_ANOMALY,BSTAR,MEAN_MOTION_DOT,MEAN_MOTION_DDOT,TLE_LINE0,TLE_LINE1,TLE_LINE2,SEMIMAJOR_AXIS,PERIOD,APOGEE,PERIGEE,DECAYED
52658.0,STARLINK-4082,PAYLOAD,2024-06-29 19:22:51,15.08826638,0.0002909,53.2179,47.9007,24.0487,336.064,0.00013391,1.843e-05,0.0,0 STARLINK-4082,1 52658U 22053C   24181.80753681  .00001843  00000-0  13391-3 0  9998,2 52658  53.2179  47.9007 0002909  24.0487 336.0640 15.08826638117959,6917.921,95.438,541.799,537.774,0.0
52658.0,STARLINK-4082,PAYLOAD,2024-06-29 22:33:36,15.08829865,0.000126,53.2161,47.3044,136.0897,224.0195,-4.5684e-05,-1.015e-05,0.0,0 STARLINK-4082,1 52658U 22053C   24181.94000738 -.00001015  00000-0 -45684-4 0  9995,2 52658  53.2161  47.3044 0001260 136.0897 224.0195 15.08829865117971,6917.911,95.438,540.648,538.905,0.0
52658.0,STARLINK-4082,PAYLOAD,2024-06-30 00:09:00,15.08826874,0.0001016,53.2173,47.005,100.504,259.6067,-0.00012414,-2.262e-05,0.0,0 STARLINK-4082,1 52658U 22053C   24182.00625028 -.00002262  00000-0 -12414-3 0  9997,2 52658  53.2173  47.0050 0001016 100.5040 259.6067 15.08826874117983,6917.921,95.438,540.488,539.083,0.0
52658.0,STARLINK-4082,PAYLOAD,2024-06-30 08:05:55,15.0883437,7.24e-05,53.2155,45.5217,115.049,245.0577,2.8584e-05,1.67e-06,0.0,0 STARLINK-4082,1 52658U 22053C   24182.33744870  .00000167  00000-0  28584-4 0  9996,2 52658  53.2155  45.5217 0000724 115.0490 245.0577 15.08834370118038,6917.898,95.438,540.263,539.262,0.0
52658.0,STARLINK-4082,PAYLOAD,2024-06-30 20:49:00,15.08847152,8.93e-05,53.2154,43.143,115.319,244.7895,0.00010116,1.323e-05,0.0,0 STARLINK-4082,1 52658U 22053C   24182.86736454  .00001323  00000-0  10116-3 0  9999,2 52658  53.2154  43.1430 0000893 115.3190 244.7895 15.08847152118115,6917.859,95.437,540.341,539.106,0.0
52658.0,STARLINK-4082,PAYLOAD,2024-06-30 22:24:23,15.08850962,0.0001145,53.2162,42.8467,124.1178,235.9923,0.00012893,1.765e-05,0.0,0 STARLINK-4082,1 52658U 22053C   24182.93360296  .00001765  00000-0  12893-3 0  9998,2 52658  53.2162  42.8467 0001145 124.1178 235.9923 15.08850962118123,6917.847,95.437,540.504,538.92,0.0
52658.0,STARLINK-4082,PAYLOAD,2024-07-01 14:18:15,15.08844836,0.000158,53.2155,39.8726,95.4803,264.6369,0.00038399,5.829e-05,0.0,0 STARLINK-4082,1 52658U 22053C   24183.59601015  .00005829  00000-0  38399-3 0  9992,2 52658  53.2155  39.8726 0001580  95.4803 264.6369 15.08844836118224,6917.866,95.437,540.824,538.638,0.0
52658.0,STARLINK-4082,PAYLOAD,2024-07-01 20:39:47,15.08847995,9.57e-05,53.2157,38.684,102.8251,257.2849,0.00026436,3.923e-05,0.0,0 STARLINK-4082,1 52658U 22053C   24183.86096654  .00003923  00000-0  26436-3 0  9991,2 52658  53.2157  38.6840 0000957 102.8251 257.2849 15.08847995118261,6917.856,95.437,540.383,539.059,0.0
52658.0,STARLINK-4082,PAYLOAD,2024-07-02 07:47:29,15.08861803,9.82e-05,53.2158,36.6016,102.9229,257.1872,0.0010246,0.00016066,0.0,0 STARLINK-4082,1 52658U 22053C   24184.32464146  .00016066  00000-0  10246-2 0  9991,2 52658  53.2158  36.6016 0000982 102.9229 257.1872 15.08861803118336,6917.814,95.436,540.358,538.999,0.0
52658.0,STARLINK-4082,PAYLOAD,2024-07-02 14:09:01,15.0884548,0.0001169,53.2146,35.4094,109.3336,250.7782,0.00025268,3.736e-05,0.0,0 STARLINK-4082,1 52658U 22053C   24184.58960312  .00003736  00000-0  25268-3 0  9996,2 52658  53.2146  35.4094 0001169 109.3336 250.7782 15.08845480118370,6917.864,95.437,540.537,538.92,0.0
52658.0,STARLINK-4082,PAYLOAD,2024-07-02 20:30:34,15.08848726,9.86e-05,53.2163,34.2231,91.9973,268.1132,0.00041605,6.341e-05,0.0,0 STARLINK-4082,1 52658U 22053C   24184.85456304  .00006341  00000-0  41605-3 0  9995,2 52658  53.2163  34.2231 0000986  91.9973 268.1132 15.08848726118411,6917.854,95.437,540.401,539.037,0.0
52658.0,STARLINK-4082,PAYLOAD,2024-07-03 20:21:21,15.08839175,0.0001092,53.2166,29.7621,87.0462,273.0655,6.1216e-05,6.87e-06,0.0,0 STARLINK-4082,1 52658U 22053C   24185.84816644  .00000687  00000-0  61216-4 0  9990,2 52658  53.2166  29.7621 0001092  87.0462 273.0655 15.08839175118563,6917.883,95.438,540.503,538.992,0.0
52658.0,STARLINK-4082,PAYLOAD,2024-07-04 13:50:36,15.08841104,0.0001072,53.2158,26.4914,84.7769,275.3345,0.00019568,2.828e-05,0.0,0 STARLINK-4082,1 52658U 22053C   24186.57680724  .00002828  00000-0  19568-3 0  9990,2 52658  53.2158  26.4914 0001072  84.7769 275.3345 15.08841104118673,6917.877,95.437,540.484,539.0,0.0
52658.0,STARLINK-4082,PAYLOAD,2024-07-04 20:12:08,15.08843266,9.12e-05,53.2164,25.3005,84.8329,275.2767,0.00013553,1.87e-05,0.0,0 STARLINK-4082,1 52658U 22053C   24186.84176538  .00001870  00000-0  13553-3 0  9997,2 52658  53.2164  25.3005 0000912  84.8329 275.2767 15.08843266118717,6917.87,95.437,540.366,539.104,0.0
52658.0,STARLINK-4082,PAYLOAD,2024-07-05 05:44:26,15.08854924,8.6e-05,53.2173,23.5166,81.379,278.73,0.00024235,3.573e-05,0.0,0 STARLINK-4082,1 52658U 22053C   24187.23919713  .00003573  00000-0  24235-3 0  9992,2 52658  53.2173  23.5166 0000860  81.3790 278.7300 15.08854924118771,6917.835,95.437,540.295,539.105,0.0
52658.0,STARLINK-4082,PAYLOAD,2024-07-05 20:02:55,15.08840447,0.0001009,53.2168,20.8434,83.4915,276.6192,6.4599e-05,7.4e-06,0.0,0 STARLINK-4082,1 52658U 22053C   24187.83536588  .00000740  00000-0  64599-4 0  9994,2 52658  53.2168  20.8434 0001009  83.4915 276.6192 15.08840447118862,6917.879,95.438,540.442,539.046,0.0
52658.0,STARLINK-4082,PAYLOAD,2024-07-06 05:35:13,15.08852554,0.0001064,53.218,19.0592,83.4551,276.6562,0.00025733,3.811e-05,0.0,0 STARLINK-4082,1 52658U 22053C   24188.23280004  .00003811  00000-0  25733-3 0  9996,2 52658  53.2180  19.0592 0001064  83.4551 276.6562 15.08852554118928,6917.842,95.437,540.443,538.971,0.0
52658.0,STARLINK-4082,PAYLOAD,2024-07-06 13:32:10,15.08830174,0.0001316,53.2182,17.5732,90.751,269.3633,-0.00014942,-2.664e-05,0.0,0 STARLINK-4082,1 52658U 22053C   24188.56400947 -.00002664  00000-0 -14942-3 0  9999,2 52658  53.2182  17.5732 0001316  90.7510 269.3633 15.08830174118972,6917.91,95.438,540.686,538.865,0.0
52658.0,STARLINK-4082,PAYLOAD,2024-07-06 19:53:42,15.08833057,0.0001205,53.218,16.384,95.1062,265.0067,2.4113e-05,9.6e-07,0.0,0 STARLINK-4082,1 52658U 22053C   24188.82896840  .00000096  00000-0  24113-4 0  9996,2 52658  53.2180  16.3840 0001205  95.1062 265.0067 15.08833057119018,6917.902,95.438,540.6,538.933,0.0
52658.0,STARLINK-4082,PAYLOAD,2024-07-07 21:19:53,15.08844772,0.0001118,53.2175,11.6254,88.5947,271.5173,0.0006088,9.416e-05,0.0,0 STARLINK-4082,1 52658U 22053C   24189.88881285  .00009416  00000-0  60880-3 0  9995,2 52658  53.2175  11.6254 0001118  88.5947 271.5173 15.08844772119173,6917.866,95.437,540.504,538.957,0.0
52658.0,STARLINK-4082,PAYLOAD,2024-07-08 11:38:21,15.08852391,0.0001329,53.2171,8.9521,85.7738,274.3406,-0.00015377,-2.735e-05,0.0,0 STARLINK-4082,1 52658U 22053C   24190.48497048 -.00002735  00000-0 -15377-3 0  9993,2 52658  53.2171   8.9521 0001329  85.7738 274.3406 15.08852391119262,6917.843,95.437,540.627,538.788,0.0
52658.0,STARLINK-4082,PAYLOAD,2024-07-08 19:35:17,15.08849012,0.000103,53.2169,7.4615,90.9269,269.1841,0.00043067,6.575e-05,0.0,0 STARLINK-4082,1 52658U 22053C   24190.81617141  .00006575  00000-0  43067-3 0  9999,2 52658  53.2169   7.4615 0001030  90.9269 269.1841 15.08849012119310,6917.853,95.437,540.43,539.005,0.0
52658.0,STARLINK-4082,PAYLOAD,2024-07-08 21:10:40,15.08850913,0.0001047,53.2165,7.1637,92.1316,267.9796,0.00057091,8.813e-05,0.0,0 STARLINK-4082,1 52658U 22053C   24190.88241060  .00008813  00000-0  57091-3 0  9998,2 52658  53.2165   7.1637 0001047  92.1316 267.9796 15.08850913119320,6917.847,95.437,540.436,538.988,0.0
52658.0,STARLINK-4082,PAYLOAD,2024-07-09 11:29:08,15.08851233,0.0002419,53.2169,4.4861,87.0772,273.0497,0.00068604,0.00010651,0.0,0 STARLINK-4082,1 52658U 22053C   24191.47857430  .00010651  00000-0  68604-3 0  9993,2 52658  53.2169   4.4861 0002419  87.0772 273.0497 15.08851233119418,6917.846,95.437,541.384,538.038,0.0
52658.0,STARLINK-4082,PAYLOAD,2024-07-09 17:50:41,15.08840737,0.0001211,53.2175,3.2983,88.3656,271.7475,0.00019672,2.844e-05,0.0,0 STARLINK-4082,1 52658U 22053C   24191.74353378  .00002844  00000-0  19672-3 0  9991,2 52658  53.2175   3.2983 0001211  88.3656 271.7475 15.08840737119453,6917.878,95.438,540.581,538.905,0.0
52658.0,STARLINK-4082,PAYLOAD,2024-07-10 11:19:55,15.08843884,0.0001426,53.2186,0.0269,114.5011,245.613,0.00051374,7.899e-05,0.0,0 STARLINK-4082,1 52658U 22053C   24192.47217376  .00007899  00000-0  51374-3 0  9999,2 52658  53.2186   0.0269 0001426 114.5011 245.6130 15.08843884119568,6917.869,95.437,540.72,538.747,0.0
52658.0,STARLINK-4082,PAYLOAD,2024-07-10 17:41:28,15.08846146,0.0001514,53.2202,358.8377,98.3951,261.7213,0.00037415,5.673e-05,0.0,0 STARLINK-4082,1 52658U 22053C   24192.73713408  .00005673  00000-0  37415-3 0  9993,2 52658  53.2202 358.8377 0001514  98.3951 261.7213 15.08846146119601,6917.862,95.437,540.774,538.679,0.0
52658.0,STARLINK-4082,PAYLOAD,2024-07-11 14:21:29,15.08846875,0.0001513,53.2194,354.9714,103.8729,256.2432,0.00029533,4.416e-05,0.0,0 STARLINK-4082,1 52658U 22053C   24193.59825282  .00004416  00000-0  29533-3 0  9998,2 52658  53.2194 354.9714 0001513 103.8729 256.2432 15.08846875119732,6917.859,95.437,540.771,538.678,0.0
52658.0,STARLINK-4082,PAYLOAD,2024-07-12 11:01:29,15.0884349,0.0001175,53.2178,351.1076,91.2695,268.8431,0.00015997,2.259e-05,0.0,0 STARLINK-4082,1 52658U 22053C   24194.45937357  .00002259  00000-0  15997-3 0  9993,2 52658  53.2178 351.1076 0001175  91.2695 268.8431 15.08843490119862,6917.87,95.437,540.548,538.922,0.0
52658.0,STARLINK-4082,PAYLOAD,2024-07-12 14:12:15,15.08844148,0.0001261,53.2189,350.5123,90.8562,269.2575,-0.00017096,-3.008e-05,0.0,0 STARLINK-4082,1 52658U 22053C   24194.59185144 -.00003008  00000-0 -17096-3 0  9994,2 52658  53.2189 350.5123 0001261  90.8562 269.2575 15.08844148119881,6917.868,95.437,540.605,538.86,0.0
